{"type": "FeatureCollection", "features": [ {"type": "Feature", "properties": {"norad_id": 35724, "name": "COSMOS 2251 DEB", "group": "cosmos-2251-debris", "lat": -71.97786423972585, "lon": -103.43629929611359, "alt_km": 746.2456975727764, "timestamp": "2025-12-04T13:52:00.838282+00:00", "meta": {"OBJECT_NAME": "COSMOS 2251 DEB", "OBJECT_ID": "1993-036AQV", "EPOCH": "2025-11-30T08:09:18.426240", "MEAN_MOTION": 14.58149733, "ECCENTRICITY": 0.00590888, "INCLINATION": 74.0317, "RA_OF_ASC_NODE": 326.2795, "ARG_OF_PERICENTER": 123.6188, "MEAN_ANOMALY": 237.0635, "EPHEMERIS_TYPE": 0, "CLASSIFICATION_TYPE": "U", "NORAD_CAT_ID": 35724, "ELEMENT_SET_NO": 999, "REV_AT_EPOCH": 87348, "BSTAR": 0.00024156118, "MEAN_MOTION_DOT": 1.11e-05, "MEAN_MOTION_DDOT": 0}, "tle": {"line1": "1 35724U 93036AQV 25334.33979660  .00001110  00000+0  24156-3 0  9995", "line2": "2 35724  74.0317 326.2795 0059088 123.6188 237.0635 14.58149733873489"}}, "geometry": {"type": "Point", "coordinates": [-103.43629929611359, -71.97786423972585]}}, {"type": "Feature", "properties": {"norad_id": 35759, "name": "COSMOS 2251 DEB", "group": "cosmos-2251-debris", "lat": -57.45681614161998, "lon": -154.90510016154113, "alt_km": 651.5378990493391, "timestamp": "2025-12-04T13:52:00.838292+00:00", "meta": {"OBJECT_NAME": "COSMOS 2251 DEB", "OBJECT_ID": "1993-036ARD", "EPOCH": "2025-12-02T09:41:30.767712", "MEAN_MOTION": 14.648293, "ECCENTRICITY": 0.00766899, "INCLINATION": 74.0385, "RA_OF_ASC_NODE": 235.9215, "ARG_OF_PERICENTER": 356.5872, "MEAN_ANOMALY": 3.4761, "EPHEMERIS_TYPE": 0, "CLASSIFICATION_TYPE": "U", "NORAD_CAT_ID": 35759, "ELEMENT_SET_NO": 999, "REV_AT_EPOCH": 65984, "BSTAR": 0.00048578617, "MEAN_MOTION_DOT": 2.675e-05, "MEAN_MOTION_DDOT": 0}, "tle": {"line1": "1 35759U 93036ARD 25336.40382833  .00002675  00000+0  48579-3 0  9995", "line2": "2 35759  74.0385 235.9215 0076689 356.5872   3.4761 14.64829300659847"}}, "geometry": {"type": "Point", "coordinates": [-154.90510016154113, -57.45681614161998]}}, {"type": "Feature", "properties": {"norad_id": 35771, "name": "COSMOS 2251 DEB", "group": "cosmos-2251-debris", "lat": 27.456987715304102, "lon": -26.84335443864677, "alt_km": 938.5047076330466, "timestamp": "2025-12-04T13:52:00.838303+00:00", "meta": {"OBJECT_NAME": "COSMOS 2251 DEB", "OBJECT_ID": "1993-036ARR", "EPOCH": "2025-12-01T22:51:30.244896", "MEAN_MOTION": 14.12926683, "ECCENTRICITY": 0.02319351, "INCLINATION": 74.1552, "RA_OF_ASC_NODE": 329.2812, "ARG_OF_PERICENTER": 270.0606, "MEAN_ANOMALY": 87.396, "EPHEMERIS_TYPE": 0, "CLASSIFICATION_TYPE": "U", "NORAD_CAT_ID": 35771, "ELEMENT_SET_NO": 999, "REV_AT_EPOCH": 82708, "BSTAR": 0.0067662276, "MEAN_MOTION_DOT": 0.00016281, "MEAN_MOTION_DDOT": 0}, "tle": {"line1": "1 35771U 93036ARR 25335.95243339  .00016281  00000+0  67662-2 0  9996", "line2": "2 35771  74.1552 329.2812 0231935 270.0606  87.3960 14.12926683827080"}}, "geometry": {"type": "Point", "coordinates": [-26.84335443864677, 27.456987715304102]}}, {"type": "Feature", "properties": {"norad_id": 35773, "name": "COSMOS 2251 DEB", "group": "cosmos-2251-debris", "lat": -73.80011719291862, "lon": -102.72385360295483, "alt_km": 703.9623391654786, "timestamp": "2025-12-04T13:52:00.838313+00:00", "meta": {"OBJECT_NAME": "COSMOS 2251 DEB", "OBJECT_ID": "1993-036ART", "EPOCH": "2025-12-03T18:35:07.808352", "MEAN_MOTION": 14.61986615, "ECCENTRICITY": 0.00460798, "INCLINATION": 74.0078, "RA_OF_ASC_NODE": 358.0155, "ARG_OF_PERICENTER": 160.5569, "MEAN_ANOMALY": 199.7369, "EPHEMERIS_TYPE": 0, "CLASSIFICATION_TYPE": "U", "NORAD_CAT_ID": 35773, "ELEMENT_SET_NO": 999, "REV_AT_EPOCH": 86708, "BSTAR": 0.00081390842, "MEAN_MOTION_DOT": 4.113e-05, "MEAN_MOTION_DDOT": 0}, "tle": {"line1": "1 35773U 93036ART 25337.77439593  .00004113  00000+0  81391-3 0  9996", "line2": "2 35773  74.0078 358.0155 0046079 160.5569 199.7369 14.61986615867088"}}, "geometry": {"type": "Point", "coordinates": [-102.72385360295483, -73.80011719291862]}}, {"type": "Feature", "properties": {"norad_id": 35777, "name": "COSMOS 2251 DEB", "group": "cosmos-2251-debris", "lat": 16.25633558087318, "lon": -19.343169946284632, "alt_km": 1377.9468198116301, "timestamp": "2025-12-04T13:52:00.838323+00:00", "meta": {"OBJECT_NAME": "COSMOS 2251 DEB", "OBJECT_ID": "1993-036ARX", "EPOCH": "2025-12-02T10:40:29.464608", "MEAN_MOTION": 13.41287955, "ECCENTRICITY": 0.04528031, "INCLINATION": 73.7709, "RA_OF_ASC_NODE": 339.1914, "ARG_OF_PERICENTER": 235.501, "MEAN_ANOMALY": 282.7283, "EPHEMERIS_TYPE": 0, "CLASSIFICATION_TYPE": "U", "NORAD_CAT_ID": 35777, "ELEMENT_SET_NO": 999, "REV_AT_EPOCH": 79546, "BSTAR": 0.00081766672, "MEAN_MOTION_DOT": 8.07e-06, "MEAN_MOTION_DDOT": 0}, "tle": {"line1": "1 35777U 93036ARX 25336.44478547  .00000807  00000+0  81767-3 0  9998", "line2": "2 35777  73.7709 339.1914 0452803 235.5010 282.7283 13.41287955795460"}}, "geometry": {"type": "Point", "coordinates": [-19.343169946284632, 16.25633558087318]}}, {"type": "Feature", "properties": {"norad_id": 35784, "name": "COSMOS 2251 DEB", "group": "cosmos-2251-debris", "lat": -73.11489211940815, "lon": 34.46548272691649, "alt_km": 709.1415653995091, "timestamp": "2025-12-04T13:52:00.838333+00:00", "meta": {"OBJECT_NAME": "COSMOS 2251 DEB", "OBJECT_ID": "1993-036ASE", "EPOCH": "2025-11-30T02:37:28.354944", "MEAN_MOTION": 14.49985321, "ECCENTRICITY": 0.00421284, "INCLINATION": 74.0362, "RA_OF_ASC_NODE": 113.4211, "ARG_OF_PERICENTER": 246.5375, "MEAN_ANOMALY": 113.1355, "EPHEMERIS_TYPE": 0, "CLASSIFICATION_TYPE": "U", "NORAD_CAT_ID": 35784, "ELEMENT_SET_NO": 999, "REV_AT_EPOCH": 65523, "BSTAR": 0.00039422851, "MEAN_MOTION_DOT": 1.515e-05, "MEAN_MOTION_DDOT": 0}, "tle": {"line1": "1 35784U 93036ASE 25334.10935596  .00001515  00000+0  39423-3 0  9998", "line2": "2 35784  74.0362 113.4211 0042128 246.5375 113.1355 14.49985321655239"}}, "geometry": {"type": "Point", "coordinates": [34.46548272691649, -73.11489211940815]}}, {"type": "Feature", "properties": {"norad_id": 35786, "name": "COSMOS 2251 DEB", "group": "cosmos-2251-debris", "lat": 71.10838512881196, "lon": 116.40795532283484, "alt_km": 675.3152947950311, "timestamp": "2025-12-04T13:52:00.838343+00:00", "meta": {"OBJECT_NAME": "COSMOS 2251 DEB", "OBJECT_ID": "1993-036ASG", "EPOCH": "2025-12-02T12:22:11.536320", "MEAN_MOTION": 14.66021148, "ECCENTRICITY": 0.00350306, "INCLINATION": 74.016, "RA_OF_ASC_NODE": 63.4983, "ARG_OF_PERICENTER": 195.5115, "MEAN_ANOMALY": 164.4984, "EPHEMERIS_TYPE": 0, "CLASSIFICATION_TYPE": "U", "NORAD_CAT_ID": 35786, "ELEMENT_SET_NO": 999, "REV_AT_EPOCH": 73258, "BSTAR": 0.0015897708, "MEAN_MOTION_DOT": 8.775e-05, "MEAN_MOTION_DDOT": 0}, "tle": {"line1": "1 35786U 93036ASG 25336.51541130  .00008775  00000+0  15898-2 0  9998", "line2": "2 35786  74.0160  63.4983 0035030 195.5115 164.4984 14.66021148732584"}}, "geometry": {"type": "Point", "coordinates": [116.40795532283484, 71.10838512881196]}}, {"type": "Feature", "properties": {"norad_id": 35789, "name": "COSMOS 2251 DEB", "group": "cosmos-2251-debris", "lat": -57.76474908395136, "lon": -87.63865199405578, "alt_km": 785.7377131438661, "timestamp": "2025-12-04T13:52:00.838353+00:00", "meta": {"OBJECT_NAME": "COSMOS 2251 DEB", "OBJECT_ID": "1993-036ASK", "EPOCH": "2025-12-04T04:07:13.820736", "MEAN_MOTION": 14.3597471, "ECCENTRICITY": 0.00471528, "INCLINATION": 74.0391, "RA_OF_ASC_NODE": 300.0971, "ARG_OF_PERICENTER": 41.8218, "MEAN_ANOMALY": 318.6522, "EPHEMERIS_TYPE": 0, "CLASSIFICATION_TYPE": "U", "NORAD_CAT_ID": 35789, "ELEMENT_SET_NO": 999, "REV_AT_EPOCH": 61104, "BSTAR": 0.00025299607, "MEAN_MOTION_DOT": 7.18e-06, "MEAN_MOTION_DDOT": 0}, "tle": {"line1": "1 35789U 93036ASK 25338.17168774  .00000718  00000+0  25300-3 0  9993", "line2": "2 35789  74.0391 300.0971 0047152  41.8218 318.6522 14.35974710611041"}}, "geometry": {"type": "Point", "coordinates": [-87.63865199405578, -57.76474908395136]}}, {"type": "Feature", "properties": {"norad_id": 35793, "name": "COSMOS 2251 DEB", "group": "cosmos-2251-debris", "lat": -2.658714230477467, "lon": -103.01519441678157, "alt_km": 635.3113125427271, "timestamp": "2025-12-04T13:52:00.838363+00:00", "meta": {"OBJECT_NAME": "COSMOS 2251 DEB", "OBJECT_ID": "1993-036ASP", "EPOCH": "2025-11-29T00:24:11.235744", "MEAN_MOTION": 14.78106278, "ECCENTRICITY": 0.00040307, "INCLINATION": 74.0402, "RA_OF_ASC_NODE": 87.138, "ARG_OF_PERICENTER": 165.1184, "MEAN_ANOMALY": 317.1346, "EPHEMERIS_TYPE": 0, "CLASSIFICATION_TYPE": "U", "NORAD_CAT_ID": 35793, "ELEMENT_SET_NO": 999, "REV_AT_EPOCH": 65594, "BSTAR": 0.0021008898, "MEAN_MOTION_DOT": 0.00015203, "MEAN_MOTION_DDOT": 0}, "tle": {"line1": "1 35793U 93036ASP 25333.01679671  .00015203  00000+0  21009-2 0  9995", "line2": "2 35793  74.0402  87.1380 0004030 165.1184 317.1346 14.78106278655944"}}, "geometry": {"type": "Point", "coordinates": [-103.01519441678157, -2.658714230477467]}}, {"type": "Feature", "properties": {"norad_id": 35824, "name": "COSMOS 2251 DEB", "group": "cosmos-2251-debris", "lat": -30.159575421140236, "lon": 53.12442434547378, "alt_km": 1122.7532602088368, "timestamp": "2025-12-04T13:52:00.838374+00:00", "meta": {"OBJECT_NAME": "COSMOS 2251 DEB", "OBJECT_ID": "1993-036ASW", "EPOCH": "2025-12-03T12:05:08.597472", "MEAN_MOTION": 13.88357909, "ECCENTRICITY": 0.02501454, "INCLINATION": 73.8459, "RA_OF_ASC_NODE": 64.6657, "ARG_OF_PERICENTER": 152.4307, "MEAN_ANOMALY": 209.0351, "EPHEMERIS_TYPE": 0, "CLASSIFICATION_TYPE": "U", "NORAD_CAT_ID": 35824, "ELEMENT_SET_NO": 999, "REV_AT_EPOCH": 84099, "BSTAR": 0.0020735278, "MEAN_MOTION_DOT": 3.165e-05, "MEAN_MOTION_DDOT": 0}, "tle": {"line1": "1 35824U 93036ASW 25337.50357173  .00003165  00000+0  20735-2 0  9997", "line2": "2 35824  73.8459  64.6657 0250145 152.4307 209.0351 13.88357909840996"}}, "geometry": {"type": "Point", "coordinates": [53.12442434547378, -30.159575421140236]}}]}